[{"OBJECT_NAME":"SL-14 R/B","OBJECT_ID":"1986-006B","EPOCH":"2026-04-24T05:10:54.536736","MEAN_MOTION":14.8688868,"ECCENTRICITY":0.00777915,"INCLINATION":82.5293,"RA_OF_ASC_NODE":216.8915,"ARG_OF_PERICENTER":121.2593,"MEAN_ANOMALY":239.6275,"EPHEMERIS_TYPE":0,"CLASSIFICATION_TYPE":"U","NORAD_CAT_ID":16496,"ELEMENT_SET_NO":999,"REV_AT_EPOCH":15597,"BSTAR":6.039385e-5,"MEAN_MOTION_DOT":5.98e-6,"MEAN_MOTION_DDOT":0},{"OBJECT_NAME":"COSMOS 1743","OBJECT_ID":"1986-034A","EPOCH":"2026-04-24T05:35:56.033952","MEAN_MOTION":15.62474427,"ECCENTRICITY":0.00075264,"INCLINATION":82.5323,"RA_OF_ASC_NODE":25.8902,"ARG_OF_PERICENTER":107.1017,"MEAN_ANOMALY":253.1066,"EPHEMERIS_TYPE":0,"CLASSIFICATION_TYPE":"U","NORAD_CAT_ID":16719,"ELEMENT_SET_NO":999,"REV_AT_EPOCH":18735,"BSTAR":0.00042677254,"MEAN_MOTION_DOT":0.00038087,"MEAN_MOTION_DDOT":0},{"OBJECT_NAME":"SL-14 R/B","OBJECT_ID":"1986-046B","EPOCH":"2026-04-24T04:53:40.190496","MEAN_MOTION":14.85632663,"ECCENTRICITY":0.00246699,"INCLINATION":82.4843,"RA_OF_ASC_NODE":37.1769,"ARG_OF_PERICENTER":78.3316,"MEAN_ANOMALY":282.0667,"EPHEMERIS_TYPE":0,"CLASSIFICATION_TYPE":"U","NORAD_CAT_ID":16792,"ELEMENT_SET_NO":999,"REV_AT_EPOCH":13316,"BSTAR":4.0644686e-5,"MEAN_MOTION_DOT":3.79e-6,"MEAN_MOTION_DDOT":0},{"OBJECT_NAME":"SL-14 R/B","OBJECT_ID":"1986-055B","EPOCH":"2026-04-23T23:55:36.920640","MEAN_MOTION":14.85680751,"ECCENTRICITY":0.00188737,"INCLINATION":82.5184,"RA_OF_ASC_NODE":84.0729,"ARG_OF_PERICENTER":177.4319,"MEAN_ANOMALY":249.7089,"EPHEMERIS_TYPE":0,"CLASSIFICATION_TYPE":"U","NORAD_CAT_ID":16882,"ELEMENT_SET_NO":999,"REV_AT_EPOCH":12609,"BSTAR":3.6332619e-5,"MEAN_MOTION_DOT":3.4e-6,"MEAN_MOTION_DDOT":0},{"OBJECT_NAME":"AJISAI (EGS)","OBJECT_ID":"1986-061A","EPOCH":"2026-04-24T06:27:48.688992","MEAN_MOTION":12.44515928,"ECCENTRICITY":0.00114239,"INCLINATION":50.0101,"RA_OF_ASC_NODE":313.1933,"ARG_OF_PERICENTER":43.9219,"MEAN_ANOMALY":114.1141,"EPHEMERIS_TYPE":0,"CLASSIFICATION_TYPE":"U","NORAD_CAT_ID":16908,"ELEMENT_SET_NO":999,"REV_AT_EPOCH":47367,"BSTAR":9.3563702e-5,"MEAN_MOTION_DOT":-8.4e-7,"MEAN_MOTION_DDOT":0},{"OBJECT_NAME":"SL-14 R/B","OBJECT_ID":"1987-024B","EPOCH":"2026-04-24T05:17:56.766624","MEAN_MOTION":14.86173577,"ECCENTRICITY":0.00197672,"INCLINATION":82.5296,"RA_OF_ASC_NODE":49.9649,"ARG_OF_PERICENTER":108.3309,"MEAN_ANOMALY":252.006,"EPHEMERIS_TYPE":0,"CLASSIFICATION_TYPE":"U","NORAD_CAT_ID":17567,"ELEMENT_SET_NO":999,"REV_AT_EPOCH":9489,"BSTAR":4.0320203e-5,"MEAN_MOTION_DOT":3.8e-6,"MEAN_MOTION_DDOT":0},{"OBJECT_NAME":"COSMOS 1833","OBJECT_ID":"1987-027A","EPOCH":"2026-04-24T07:22:50.948832","MEAN_MOTION":14.13034393,"ECCENTRICITY":0.0022424,"INCLINATION":70.9164,"RA_OF_ASC_NODE":230.128,"ARG_OF_PERICENTER":143.9862,"MEAN_ANOMALY":216.2775,"EPHEMERIS_TYPE":0,"CLASSIFICATION_TYPE":"U","NORAD_CAT_ID":17589,"ELEMENT_SET_NO":999,"REV_AT_EPOCH":1676,"BSTAR":-9.3460785e-5,"MEAN_MOTION_DOT":-2.23e-6,"MEAN_MOTION_DDOT":0},{"OBJECT_NAME":"SL-16 R/B","OBJECT_ID":"1987-027B","EPOCH":"2026-04-24T05:15:39.722400","MEAN_MOTION":14.17170251,"ECCENTRICITY":0.00035479,"INCLINATION":71.0028,"RA_OF_ASC_NODE":180.5528,"ARG_OF_PERICENTER":29.8108,"MEAN_ANOMALY":330.3217,"EPHEMERIS_TYPE":0,"CLASSIFICATION_TYPE":"U","NORAD_CAT_ID":17590,"ELEMENT_SET_NO":999,"REV_AT_EPOCH":2179,"BSTAR":0.00013780319,"MEAN_MOTION_DOT":2.3e-6,"MEAN_MOTION_DDOT":0},{"OBJECT_NAME":"SL-14 R/B","OBJECT_ID":"1987-038B","EPOCH":"2026-04-24T07:21:15.994368","MEAN_MOTION":14.85408732,"ECCENTRICITY":0.00196219,"INCLINATION":82.5002,"RA_OF_ASC_NODE":253.8211,"ARG_OF_PERICENTER":18.2969,"MEAN_ANOMALY":341.8948,"EPHEMERIS_TYPE":0,"CLASSIFICATION_TYPE":"U","NORAD_CAT_ID":17912,"ELEMENT_SET_NO":999,"REV_AT_EPOCH":8600,"BSTAR":3.7716756e-5,"MEAN_MOTION_DOT":3.5e-6,"MEAN_MOTION_DDOT":0},{"OBJECT_NAME":"COSMOS 1844","OBJECT_ID":"1987-041A","EPOCH":"2026-04-23T22:33:52.898976","MEAN_MOTION":14.14561471,"ECCENTRICITY":0.00327709,"INCLINATION":70.8983,"RA_OF_ASC_NODE":298.7313,"ARG_OF_PERICENTER":311.5718,"MEAN_ANOMALY":48.2595,"EPHEMERIS_TYPE":0,"CLASSIFICATION_TYPE":"U","NORAD_CAT_ID":17973,"ELEMENT_SET_NO":999,"REV_AT_EPOCH":998,"BSTAR":-0.00013302048,"MEAN_MOTION_DOT":-3.05e-6,"MEAN_MOTION_DDOT":0},{"OBJECT_NAME":"SL-14 R/B","OBJECT_ID":"1987-055B","EPOCH":"2026-04-24T00:08:31.223616","MEAN_MOTION":14.8566727,"ECCENTRICITY":0.00196076,"INCLINATION":82.4968,"RA_OF_ASC_NODE":306.3153,"ARG_OF_PERICENTER":220.6131,"MEAN_ANOMALY":139.3623,"EPHEMERIS_TYPE":0,"CLASSIFICATION_TYPE":"U","NORAD_CAT_ID":18153,"ELEMENT_SET_NO":999,"REV_AT_EPOCH":7666,"BSTAR":3.21918e-5,"MEAN_MOTION_DOT":3.04e-6,"MEAN_MOTION_DDOT":0},{"OBJECT_NAME":"COSMOS 1867","OBJECT_ID":"1987-060A","EPOCH":"2026-04-24T04:48:40.875840","MEAN_MOTION":14.3150957,"ECCENTRICITY":0.00153753,"INCLINATION":65.0103,"RA_OF_ASC_NODE":179.2507,"ARG_OF_PERICENTER":280.9325,"MEAN_ANOMALY":79.003,"EPHEMERIS_TYPE":0,"CLASSIFICATION_TYPE":"U","NORAD_CAT_ID":18187,"ELEMENT_SET_NO":999,"REV_AT_EPOCH":2645,"BSTAR":1.207245e-5,"MEAN_MOTION_DOT":-6.8e-7,"MEAN_MOTION_DDOT":0},{"OBJECT_NAME":"SL-14 R/B","OBJECT_ID":"1988-001B","EPOCH":"2026-04-24T04:57:16.708896","MEAN_MOTION":14.85569186,"ECCENTRICITY":0.00196624,"INCLINATION":82.5126,"RA_OF_ASC_NODE":152.5595,"ARG_OF_PERICENTER":88.3097,"MEAN_ANOMALY":272.0372,"EPHEMERIS_TYPE":0,"CLASSIFICATION_TYPE":"U","NORAD_CAT_ID":18749,"ELEMENT_SET_NO":999,"REV_AT_EPOCH":4878,"BSTAR":2.8480416e-5,"MEAN_MOTION_DOT":2.72e-6,"MEAN_MOTION_DDOT":0},{"OBJECT_NAME":"COSMOS 1933","OBJECT_ID":"1988-020A","EPOCH":"2026-04-24T04:50:26.963808","MEAN_MOTION":15.18377625,"ECCENTRICITY":0.00050882,"INCLINATION":82.515,"RA_OF_ASC_NODE":205.8756,"ARG_OF_PERICENTER":57.4068,"MEAN_ANOMALY":302.7657,"EPHEMERIS_TYPE":0,"CLASSIFICATION_TYPE":"U","NORAD_CAT_ID":18958,"ELEMENT_SET_NO":999,"REV_AT_EPOCH":5713,"BSTAR":0.00015622448,"MEAN_MOTION_DOT":3.241e-5,"MEAN_MOTION_DDOT":0},{"OBJECT_NAME":"SL-3 R/B","OBJECT_ID":"1988-032B","EPOCH":"2026-04-24T03:38:15.110592","MEAN_MOTION":15.20369457,"ECCENTRICITY":0.00276014,"INCLINATION":97.5239,"RA_OF_ASC_NODE":97.276,"ARG_OF_PERICENTER":76.5867,"MEAN_ANOMALY":283.8442,"EPHEMERIS_TYPE":0,"CLASSIFICATION_TYPE":"U","NORAD_CAT_ID":19046,"ELEMENT_SET_NO":999,"REV_AT_EPOCH":5901,"BSTAR":0.00018348197,"MEAN_MOTION_DOT":3.963e-5,"MEAN_MOTION_DDOT":0},{"OBJECT_NAME":"SL-16 R/B","OBJECT_ID":"1988-039B","EPOCH":"2026-04-24T00:08:24.895680","MEAN_MOTION":14.19623016,"ECCENTRICITY":0.00240832,"INCLINATION":71.0153,"RA_OF_ASC_NODE":332.7287,"ARG_OF_PERICENTER":270.3096,"MEAN_ANOMALY":89.527,"EPHEMERIS_TYPE":0,"CLASSIFICATION_TYPE":"U","NORAD_CAT_ID":19120,"ELEMENT_SET_NO":999,"REV_AT_EPOCH":96481,"BSTAR":7.5726473e-5,"MEAN_MOTION_DOT":1.12e-6,"MEAN_MOTION_DDOT":0},{"OBJECT_NAME":"COSMOS 1953","OBJECT_ID":"1988-050A","EPOCH":"2026-04-23T23:34:13.141920","MEAN_MOTION":15.29186326,"ECCENTRICITY":0.00096535,"INCLINATION":82.5052,"RA_OF_ASC_NODE":112.6591,"ARG_OF_PERICENTER":333.8035,"MEAN_ANOMALY":26.2715,"EPHEMERIS_TYPE":0,"CLASSIFICATION_TYPE":"U","NORAD_CAT_ID":19210,"ELEMENT_SET_NO":999,"REV_AT_EPOCH":4470,"BSTAR":0.00020474045,"MEAN_MOTION_DOT":5.837e-5,"MEAN_MOTION_DDOT":0}]
