SL-14 R/B               
1 16496U 86006B   26114.21590899  .00000598  00000+0  60394-4 0  9990
2 16496  82.5293 216.8915 0077791 121.2593 239.6275 14.86888680155971
COSMOS 1743             
1 16719U 86034A   26114.23328743  .00038087  00000+0  42677-3 0  9995
2 16719  82.5323  25.8902 0007526 107.1017 253.1066 15.62474427187351
SL-14 R/B               
1 16792U 86046B   26114.20393739  .00000379  00000+0  40645-4 0  9990
2 16792  82.4843  37.1769 0024669  78.3316 282.0667 14.85632663133163
SL-14 R/B               
1 16882U 86055B   26113.99695510  .00000340  00000+0  36333-4 0  9994
2 16882  82.5184  84.0729 0018873 177.4319 249.7089 14.85680751126096
AJISAI (EGS)            
1 16908U 86061A   26114.26931353 -.00000084  00000+0  93564-4 0  9994
2 16908  50.0101 313.1933 0011423  43.9219 114.1141 12.44515928473676
SL-14 R/B               
1 17567U 87024B   26114.22079591  .00000380  00000+0  40320-4 0  9999
2 17567  82.5296  49.9649 0019767 108.3309 252.0060 14.86173577 94899
COSMOS 1833             
1 17589U 87027A   26114.30753413 -.00000223  00000+0 -93461-4 0  9999
2 17589  70.9164 230.1280 0022424 143.9862 216.2775 14.13034393 16763
SL-16 R/B               
1 17590U 87027B   26114.21920975  .00000230  00000+0  13780-3 0  9991
2 17590  71.0028 180.5528 0003547  29.8108 330.3217 14.17170251 21795
SL-14 R/B               
1 17912U 87038B   26114.30643512  .00000350  00000+0  37717-4 0  9990
2 17912  82.5002 253.8211 0019621  18.2969 341.8948 14.85408732 86008
COSMOS 1844             
1 17973U 87041A   26113.94019559 -.00000305  00000+0 -13302-3 0  9993
2 17973  70.8983 298.7313 0032770 311.5718  48.2595 14.14561471  9985
SL-14 R/B               
1 18153U 87055B   26114.00591694  .00000304  00000+0  32192-4 0  9998
2 18153  82.4968 306.3153 0019607 220.6131 139.3623 14.85667270 76664
COSMOS 1867             
1 18187U 87060A   26114.20047310 -.00000068  00000+0  12072-4 0  9997
2 18187  65.0103 179.2507 0015375 280.9325  79.0030 14.31509570 26454
SL-14 R/B               
1 18749U 88001B   26114.20644339  .00000272  00000+0  28480-4 0  9997
2 18749  82.5126 152.5595 0019662  88.3097 272.0372 14.85569186 48789
COSMOS 1933             
1 18958U 88020A   26114.20170097  .00003241  00000+0  15622-3 0  9997
2 18958  82.5150 205.8756 0005088  57.4068 302.7657 15.18377625 57139
SL-3 R/B                
1 19046U 88032B   26114.15156378  .00003963  00000+0  18348-3 0  9998
2 19046  97.5239  97.2760 0027601  76.5867 283.8442 15.20369457 59011
SL-16 R/B               
1 19120U 88039B   26114.00584370  .00000112  00000+0  75726-4 0  9996
2 19120  71.0153 332.7287 0024083 270.3096  89.5270 14.19623016964810
COSMOS 1953             
1 19210U 88050A   26113.98209655  .00005837  00000+0  20474-3 0  9993
2 19210  82.5052 112.6591 0009653 333.8035  26.2715 15.29186326 44701
